NORAD_CAT_ID,OBJECT_NAME,OBJECT_TYPE,EPOCH,MEAN_MOTION,ECCENTRICITY,INCLINATION,RA_OF_ASC_NODE,ARG_OF_PERICENTER,MEAN_ANOMALY,BSTAR,MEAN_MOTION_DOT,MEAN_MOTION_DDOT,TLE_LINE0,TLE_LINE1,TLE_LINE2,SEMIMAJOR_AXIS,PERIOD,APOGEE,PERIGEE,DECAYED
40536,KOMPSAT 3A,PAYLOAD,2021-02-19 11:55:28,15.12320005,0.0003213,97.5696,353.3706,50.648999999999994,60.94300000000001,6.9915e-05,1.146e-05,0.0,0 KOMPSAT 3A,1 40536U 15014A   21050.49686152  .00001146  00000-0  69915-4 0  9994,2 40536  97.5696 353.3706 0003213  50.6490  60.9430 15.12320005326059,6907.264,95.21799999999999,531.3480000000002,526.91,0.0
40536,KOMPSAT 3A,PAYLOAD,2021-02-19 16:42:59,15.12317276,0.0003262,97.5689,353.5682,50.7069,67.1918,4.3256999999999996e-05,6.84e-06,0.0,0 KOMPSAT 3A,1 40536U 15014A   21050.69651947  .00000684  00000-0  43257-4 0  9997,2 40536  97.5689 353.5682 0003262  50.7069  67.1918 15.12317276326082,6907.272,95.21799999999999,531.39,526.884,0.0
40536,KOMPSAT 3A,PAYLOAD,2021-02-19 19:44:23,15.12317392,0.0003258,97.5691,353.69300000000015,50.3308,33.0052,4.2582e-05,6.73e-06,0.0,0 KOMPSAT 3A,1 40536U 15014A   21050.82249813  .00000673  00000-0  42582-4 0  9995,2 40536  97.5691 353.6930 0003258  50.3308  33.0052 15.12317392326102,6907.272,95.21799999999999,531.387,526.886,0.0
40536,KOMPSAT 3A,PAYLOAD,2021-02-20 03:51:29,15.12317416,0.00032439999999999997,97.569,354.0284,49.405,74.3986,3.9377e-05,6.17e-06,0.0,0 KOMPSAT 3A,1 40536U 15014A   21051.16076380  .00000617  00000-0  39377-4 0  9996,2 40536  97.5690 354.0284 0003244  49.4050  74.3986 15.12317416326152,6907.272,95.21799999999999,531.377,526.896,0.0
40536,KOMPSAT 3A,PAYLOAD,2021-02-20 11:44:41,15.12317642,0.00032260000000000004,97.569,354.3542,47.9998,63.742,3.7826999999999995e-05,5.9e-06,0.0,0 KOMPSAT 3A,1 40536U 15014A   21051.48937465  .00000590  00000-0  37827-4 0  9999,2 40536  97.5690 354.3542 0003226  47.9998  63.7420 15.12317642326208,6907.271,95.21799999999999,531.364,526.908,0.0
40536,KOMPSAT 3A,PAYLOAD,2021-02-20 19:33:46,15.12316864,0.0003261,97.5688,354.6772,46.5828,37.5021,2.9048e-05,4.38e-06,0.0,0 KOMPSAT 3A,1 40536U 15014A   21051.81512027  .00000438  00000-0  29048-4 0  9996,2 40536  97.5688 354.6772 0003261  46.5828  37.5021 15.12316864326255,6907.273,95.21799999999999,531.391,526.886,0.0
40536,KOMPSAT 3A,PAYLOAD,2021-02-21 03:40:54,15.123168300000001,0.0003235,97.5688,355.0125,45.8784,78.7803,2.6257e-05,3.9e-06,0.0,0 KOMPSAT 3A,1 40536U 15014A   21052.15340538  .00000390  00000-0  26257-4 0  9996,2 40536  97.5688 355.0125 0003235  45.8784  78.7803 15.12316830326300,6907.273,95.21799999999999,531.373,526.904,0.0
40536,KOMPSAT 3A,PAYLOAD,2021-02-21 13:10:41,15.123166399999999,0.00032010000000000003,97.5686,355.4046,44.751999999999995,72.7632,2.2975e-05,3.33e-06,0.0,0 KOMPSAT 3A,1 40536U 15014A   21052.54908628  .00000333  00000-0  22975-4 0  9999,2 40536  97.5686 355.4046 0003201  44.7520  72.7632 15.12316640326362,6907.274,95.21799999999999,531.35,526.928,0.0
40536,KOMPSAT 3A,PAYLOAD,2021-02-21 20:58:37,15.12316709,0.00032189999999999996,97.5685,355.7268,43.6103,41.9419,2.0666999999999997e-05,2.93e-06,0.0,0 KOMPSAT 3A,1 40536U 15014A   21052.87403940  .00000293  00000-0  20667-4 0  9993,2 40536  97.5685 355.7268 0003219  43.6103  41.9419 15.12316709326417,6907.274,95.21799999999999,531.362,526.915,0.0
40536,KOMPSAT 3A,PAYLOAD,2021-02-22 05:02:30,15.12316849,0.0003213,97.5685,356.06,42.8343,71.0276,1.9651e-05,2.76e-06,0.0,0 KOMPSAT 3A,1 40536U 15014A   21053.21007017  .00000276  00000-0  19651-4 0  9999,2 40536  97.5685 356.0600 0003213  42.8343  71.0276 15.12316849326467,6907.273,95.21799999999999,531.3580000000002,526.919,0.0
40536,KOMPSAT 3A,PAYLOAD,2021-02-22 12:59:59,15.12317144,0.00032110000000000005,97.5685,356.3886,42.1192,75.877,2.0012e-05,2.82e-06,0.0,0 KOMPSAT 3A,1 40536U 15014A   21053.54165753  .00000282  00000-0  20012-4 0  9997,2 40536  97.5685 356.3886 0003211  42.1192  75.8770 15.12317144326515,6907.273,95.21799999999999,531.355,526.92,0.0
40536,KOMPSAT 3A,PAYLOAD,2021-02-22 20:45:05,15.12317851,0.00031489999999999996,97.5684,356.7085,42.0177,33.31,2.2474000000000002e-05,3.24e-06,0.0,0 KOMPSAT 3A,1 40536U 15014A   21053.86464206  .00000324  00000-0  22474-4 0  9998,2 40536  97.5684 356.7085 0003149  42.0177  33.3100 15.12317851326567,6907.27,95.21799999999999,531.31,526.96,0.0
40536,KOMPSAT 3A,PAYLOAD,2021-02-23 04:58:16,15.12318526,0.0003116,97.5682,357.0478,41.2791,97.5098,2.4707e-05,3.63e-06,0.0,0 KOMPSAT 3A,1 40536U 15014A   21054.20713251  .00000363  00000-0  24707-4 0  9998,2 40536  97.5682 357.0478 0003116  41.2791  97.5098 15.12318526326616,6907.268,95.21799999999999,531.286,526.981,0.0
40536,KOMPSAT 3A,PAYLOAD,2021-02-23 12:47:47,15.12319105,0.0003148,97.5683,357.3712,39.8291,73.0015,2.6859e-05,4e-06,0.0,0 KOMPSAT 3A,1 40536U 15014A   21054.53318854  .00000400  00000-0  26859-4 0  9996,2 40536  97.5683 357.3712 0003148  39.8291  73.0015 15.12319105326661,6907.267,95.21799999999999,531.306,526.957,0.0
40536,KOMPSAT 3A,PAYLOAD,2021-02-23 19:00:56,15.12320273,0.000308,97.5682,357.6278,40.2236,42.5321,3.2696e-05,5.01e-06,0.0,0 KOMPSAT 3A,1 40536U 15014A   21054.79232135  .00000501  00000-0  32696-4 0  9999,2 40536  97.5682 357.6278 0003080  40.2236  42.5321 15.12320273326704,6907.263000000001,95.21799999999999,531.255,527.001,0.0
40536,KOMPSAT 3A,PAYLOAD,2021-02-23 23:43:34,15.12320659,0.0003089,97.5681,357.8224,39.3962,31.2349,3.3798000000000004e-05,5.21e-06,0.0,0 KOMPSAT 3A,1 40536U 15014A   21054.98858892  .00000521  00000-0  33798-4 0  9990,2 40536  97.5681 357.8224 0003089  39.3962  31.2349 15.12320659326736,6907.262,95.21799999999999,531.26,526.993,0.0
40536,KOMPSAT 3A,PAYLOAD,2021-02-24 02:50:41,15.1232135,0.0003015,97.5681,357.9514,39.0198,18.6192,3.7217e-05,5.7999999999999995e-06,0.0,0 KOMPSAT 3A,1 40536U 15014A   21055.11853103  .00000580  00000-0  37217-4 0  9991,2 40536  97.5681 357.9514 0003015  39.0198  18.6192 15.12321350326752,6907.26,95.21799999999999,531.207,527.0419999999998,0.0
40536,KOMPSAT 3A,PAYLOAD,2021-02-24 11:00:57,15.12322599,0.0002904,97.5683,358.2893,38.1125,71.9846,4.1743e-05,6.58e-06,0.0,0 KOMPSAT 3A,1 40536U 15014A   21055.45899774  .00000658  00000-0  41743-4 0  9997,2 40536  97.5683 358.2893 0002904  38.1125  71.9846 15.12322599326804,6907.2559999999985,95.21799999999999,531.127,527.115,0.0
40536,KOMPSAT 3A,PAYLOAD,2021-02-24 18:50:23,15.12323952,0.00029489999999999996,97.5685,358.6127,37.8311,45.9847,4.8195e-05,7.699999999999999e-06,0.0,0 KOMPSAT 3A,1 40536U 15014A   21055.78499282  .00000770  00000-0  48195-4 0  9996,2 40536  97.5685 358.6127 0002949  37.8311  45.9847 15.12323952326853,6907.2519999999995,95.21799999999999,531.154,527.08,0.0
40536,KOMPSAT 3A,PAYLOAD,2021-02-25 07:50:25,15.12325832,0.0002887,97.5685,359.1495,36.0473,115.0581,5.4943e-05,8.87e-06,0.0,0 KOMPSAT 3A,1 40536U 15014A   21056.32668056  .00000887  00000-0  54943-4 0  9991,2 40536  97.5685 359.1495 0002887  36.0473 115.0581 15.12325832326930,6907.246,95.21799999999999,531.105,527.117,0.0
40536,KOMPSAT 3A,PAYLOAD,2021-02-25 10:49:51,15.12326084,0.0002887,97.5685,359.2731,35.5852,73.5076,5.5085e-05,8.89e-06,0.0,0 KOMPSAT 3A,1 40536U 15014A   21056.45128925  .00000889  00000-0  55085-4 0  9991,2 40536  97.5685 359.2731 0002887  35.5852  73.5076 15.12326084326958,6907.245,95.21799999999999,531.104,527.116,0.0
40536,KOMPSAT 3A,PAYLOAD,2021-02-25 19:58:41,15.123278299999999,0.0002779,97.5686,359.6511,35.8103,347.0398,6.3159e-05,1.029e-05,0.0,0 KOMPSAT 3A,1 40536U 15014A   21056.83242809  .00001029  00000-0  63159-4 0  9999,2 40536  97.5686 359.6511 0002779  35.8103 347.0398 15.12327830327015,6907.24,95.21700000000001,531.025,527.185,0.0
40536,KOMPSAT 3A,PAYLOAD,2021-02-26 02:47:10,15.12328942,0.0002778,97.5687,359.9324,34.5819,91.67299999999999,6.6698e-05,1.09e-05,0.0,0 KOMPSAT 3A,1 40536U 15014A   21057.11609269  .00001090  00000-0  66698-4 0  9997,2 40536  97.5687 359.9324 0002778  34.5819  91.6730 15.12328942327051,6907.236999999999,95.21700000000001,531.02,527.183,0.0
40536,KOMPSAT 3A,PAYLOAD,2021-02-26 10:38:59,15.12329827,0.0002786,97.5687,0.2572,34.2609,74.6971,6.7775e-05,1.109e-05,0.0,0 KOMPSAT 3A,1 40536U 15014A   21057.44373846  .00001109  00000-0  67775-4 0  9990,2 40536  97.5687   0.2572 0002786  34.2609  74.6971 15.12329827327102,6907.234,95.21700000000001,531.023,527.175,0.0
40536,KOMPSAT 3A,PAYLOAD,2021-02-26 20:04:14,15.12330975,0.0002762,97.5688,0.6463,33.6474,51.0787,7.0375e-05,1.154e-05,0.0,0 KOMPSAT 3A,1 40536U 15014A   21057.83627447  .00001154  00000-0  70375-4 0  9992,2 40536  97.5688   0.6463 0002762  33.6474  51.0787 15.12330975327169,6907.23,95.21700000000001,531.003,527.188,0.0
40536,KOMPSAT 3A,PAYLOAD,2021-02-27 02:34:57,15.12331572,0.0002725,97.5689,0.9153,33.5444,87.5229,7.0347e-05,1.154e-05,0.0,0 KOMPSAT 3A,1 40536U 15014A   21058.10761334  .00001154  00000-0  70347-4 0  9996,2 40536  97.5689   0.9153 0002725  33.5444  87.5229 15.12331572327208,6907.229,95.21700000000001,530.976,527.211,0.0
40536,KOMPSAT 3A,PAYLOAD,2021-02-27 12:04:03,15.12332382,0.000271,97.5689,1.3071,32.4648,78.8941,6.9605e-05,1.141e-05,0.0,0 KOMPSAT 3A,1 40536U 15014A   21058.50281844  .00001141  00000-0  69605-4 0  9994,2 40536  97.5689   1.3071 0002710  32.4648  78.8941 15.12332382327260,6907.226,95.21700000000001,530.9630000000002,527.219,0.0
40536,KOMPSAT 3A,PAYLOAD,2021-02-27 19:53:28,15.12332596,0.00026349999999999995,97.5693,1.6306,33.3131,51.7011,6.626100000000001e-05,1.083e-05,0.0,0 KOMPSAT 3A,1 40536U 15014A   21058.82880128  .00001083  00000-0  66261-4 0  9999,2 40536  97.5693   1.6306 0002635  33.3131  51.7011 15.12332596327313,6907.225,95.21700000000001,530.911,527.27,0.0
40536,KOMPSAT 3A,PAYLOAD,2021-02-28 03:57:34,15.12332818,0.0002722,97.5694,1.9639,30.8469,83.29899999999998,6.2529e-05,1.018e-05,0.0,0 KOMPSAT 3A,1 40536U 15014A   21059.16498035  .00001018  00000-0  62529-4 0  9990,2 40536  97.5694   1.9639 0002722  30.8469  83.2990 15.12332818327367,6907.225,95.21700000000001,530.97,527.21,0.0
